{
  "type": "FeatureCollection",
  "features": [
    {
      "type": "Feature",
      "properties": {
        "norad_id": 39766,
        "name": "ALOS-2",
        "group": "resource",
        "lat": 38.75979580191155,
        "lon": -95.69865612337036,
        "alt_km": 627.3614656940144,
        "timestamp": "2025-12-08T23:34:03.626602+00:00",
        "meta_object_name": "ALOS-2",
        "meta_object_id": "2014-029A",
        "meta_epoch": "2025-12-08T19:41:15.006912",
        "meta_mean_motion": 14.79457487,
        "meta_eccentricity": 0.0001453,
        "meta_inclination": 97.923,
        "meta_ra_of_asc_node": 77.7223,
        "meta_arg_of_pericenter": 101.1392,
        "meta_mean_anomaly": 258.9983,
        "meta_ephemeris_type": 0,
        "meta_classification_type": "U",
        "meta_norad_cat_id": 39766,
        "meta_element_set_no": 999,
        "meta_rev_at_epoch": 62343,
        "meta_bstar": 0.0004627,
        "meta_mean_motion_dot": 3.404e-05,
        "meta_mean_motion_ddot": 0,
        "tle_line1": "1 39766U 14029A   25342.82031258  .00003404  00000+0  46270-3 0  9994",
        "tle_line2": "2 39766  97.9230  77.7223 0001453 101.1392 258.9983 14.79457487623439"
      },
      "geometry": {
        "type": "Point",
        "coordinates": [
          -95.69865612337036,
          38.75979580191155
        ]
      }
    },
    {
      "type": "Feature",
      "properties": {
        "norad_id": 40010,
        "name": "KAZEOSAT 2",
        "group": "resource",
        "lat": -25.81861989705409,
        "lon": -168.82962334631245,
        "alt_km": 620.8850366899633,
        "timestamp": "2025-12-08T23:34:03.626612+00:00",
        "meta_object_name": "KAZEOSAT 2",
        "meta_object_id": "2014-033A",
        "meta_epoch": "2025-12-08T13:58:58.599552",
        "meta_mean_motion": 14.85158516,
        "meta_eccentricity": 0.00074951,
        "meta_inclination": 97.5514,
        "meta_ra_of_asc_node": 187.1119,
        "meta_arg_of_pericenter": 221.7196,
        "meta_mean_anomaly": 138.3449,
        "meta_ephemeris_type": 0,
        "meta_classification_type": "U",
        "meta_norad_cat_id": 40010,
        "meta_element_set_no": 999,
        "meta_rev_at_epoch": 62066,
        "meta_bstar": 0.00017593147,
        "meta_mean_motion_dot": 1.457e-05,
        "meta_mean_motion_ddot": 0,
        "tle_line1": "1 40010U 14033A   25342.58262268  .00001457  00000+0  17593-3 0  9995",
        "tle_line2": "2 40010  97.5514 187.1119 0007495 221.7196 138.3449 14.85158516620665"
      },
      "geometry": {
        "type": "Point",
        "coordinates": [
          -168.82962334631245,
          -25.81861989705409
        ]
      }
    },
    {
      "type": "Feature",
      "properties": {
        "norad_id": 40011,
        "name": "HODOYOSHI-4",
        "group": "resource",
        "lat": 30.19137911335184,
        "lon": 167.63051626317016,
        "alt_km": 620.3434838177782,
        "timestamp": "2025-12-08T23:34:03.626623+00:00",
        "meta_object_name": "HODOYOSHI-4",
        "meta_object_id": "2014-033B",
        "meta_epoch": "2025-12-08T13:44:36.726720",
        "meta_mean_motion": 14.87459593,
        "meta_eccentricity": 0.00229201,
        "meta_inclination": 97.5416,
        "meta_ra_of_asc_node": 171.6622,
        "meta_arg_of_pericenter": 214.7563,
        "meta_mean_anomaly": 145.2158,
        "meta_ephemeris_type": 0,
        "meta_classification_type": "U",
        "meta_norad_cat_id": 40011,
        "meta_element_set_no": 999,
        "meta_rev_at_epoch": 62046,
        "meta_bstar": 0.00034109649,
        "meta_mean_motion_dot": 3.052e-05,
        "meta_mean_motion_ddot": 0,
        "tle_line1": "1 40011U 14033B   25342.57264730  .00003052  00000+0  34110-3 0  9998",
        "tle_line2": "2 40011  97.5416 171.6622 0022920 214.7563 145.2158 14.87459593620467"
      },
      "geometry": {
        "type": "Point",
        "coordinates": [
          167.63051626317016,
          30.19137911335184
        ]
      }
    },
    {
      "type": "Feature",
      "properties": {
        "norad_id": 40013,
        "name": "DEIMOS-2",
        "group": "resource",
        "lat": 65.2029043678982,
        "lon": 55.720141490232606,
        "alt_km": 581.7591039580357,
        "timestamp": "2025-12-08T23:34:03.626633+00:00",
        "meta_object_name": "DEIMOS-2",
        "meta_object_id": "2014-033D",
        "meta_epoch": "2025-12-08T15:01:04.107072",
        "meta_mean_motion": 14.92948213,
        "meta_eccentricity": 9.689e-05,
        "meta_inclination": 97.6069,
        "meta_ra_of_asc_node": 218.5617,
        "meta_arg_of_pericenter": 95.3799,
        "meta_mean_anomaly": 264.7531,
        "meta_ephemeris_type": 0,
        "meta_classification_type": "U",
        "meta_norad_cat_id": 40013,
        "meta_element_set_no": 999,
        "meta_rev_at_epoch": 60928,
        "meta_bstar": 0.0003821277,
        "meta_mean_motion_dot": 3.913e-05,
        "meta_mean_motion_ddot": 0,
        "tle_line1": "1 40013U 14033D   25342.62574198  .00003913  00000+0  38213-3 0  9992",
        "tle_line2": "2 40013  97.6069 218.5617 0000968  95.3799 264.7531 14.92948213609288"
      },
      "geometry": {
        "type": "Point",
        "coordinates": [
          55.720141490232606,
          65.2029043678982
        ]
      }
    },
    {
      "type": "Feature",
      "properties": {
        "norad_id": 40015,
        "name": "HODOYOSHI-3",
        "group": "resource",
        "lat": -7.6381393370121025,
        "lon": 150.00906812520407,
        "alt_km": 618.7316286750056,
        "timestamp": "2025-12-08T23:34:03.626643+00:00",
        "meta_object_name": "HODOYOSHI-3",
        "meta_object_id": "2014-033F",
        "meta_epoch": "2025-12-08T10:39:47.457792",
        "meta_mean_motion": 14.84784577,
        "meta_eccentricity": 0.00318196,
        "meta_inclination": 97.6198,
        "meta_ra_of_asc_node": 148.4663,
        "meta_arg_of_pericenter": 262.7037,
        "meta_mean_anomaly": 97.0561,
        "meta_ephemeris_type": 0,
        "meta_classification_type": "U",
        "meta_norad_cat_id": 40015,
        "meta_element_set_no": 999,
        "meta_rev_at_epoch": 61931,
        "meta_bstar": 0.00034897393,
        "meta_mean_motion_dot": 2.935e-05,
        "meta_mean_motion_ddot": 0,
        "tle_line1": "1 40015U 14033F   25342.44429928  .00002935  00000+0  34897-3 0  9991",
        "tle_line2": "2 40015  97.6198 148.4663 0031819 262.7037  97.0561 14.84784577619316"
      },
      "geometry": {
        "type": "Point",
        "coordinates": [
          150.00906812520407,
          -7.6381393370121025
        ]
      }
    },
    {
      "type": "Feature",
      "properties": {
        "norad_id": 40053,
        "name": "SPOT 7",
        "group": "resource",
        "lat": 39.17913757426396,
        "lon": 38.486401148022566,
        "alt_km": 687.1970268475961,
        "timestamp": "2025-12-08T23:34:03.626653+00:00",
        "meta_object_name": "SPOT 7",
        "meta_object_id": "2014-034A",
        "meta_epoch": "2025-12-08T15:10:00.451488",
        "meta_mean_motion": 14.60726769,
        "meta_eccentricity": 0.00015362,
        "meta_inclination": 98.0912,
        "meta_ra_of_asc_node": 44.8021,
        "meta_arg_of_pericenter": 94.0308,
        "meta_mean_anomaly": 266.1069,
        "meta_ephemeris_type": 0,
        "meta_classification_type": "U",
        "meta_norad_cat_id": 40053,
        "meta_element_set_no": 999,
        "meta_rev_at_epoch": 60931,
        "meta_bstar": 0.00024832781,
        "meta_mean_motion_dot": 1.165e-05,
        "meta_mean_motion_ddot": 0,
        "tle_line1": "1 40053U 14034A   25342.63194967  .00001165  00000+0  24833-3 0  9990",
        "tle_line2": "2 40053  98.0912  44.8021 0001536  94.0308 266.1069 14.60726769609318"
      },
      "geometry": {
        "type": "Point",
        "coordinates": [
          38.486401148022566,
          39.17913757426396
        ]
      }
    },
    {
      "type": "Feature",
      "properties": {
        "norad_id": 40072,
        "name": "SKYSAT-B",
        "group": "resource",
        "lat": -24.33623399378519,
        "lon": -69.69672512614366,
        "alt_km": 615.9642830881558,
        "timestamp": "2025-12-08T23:34:03.626664+00:00",
        "meta_object_name": "SKYSAT-B",
        "meta_object_id": "2014-037D",
        "meta_epoch": "2025-12-08T13:59:25.514880",
        "meta_mean_motion": 14.87304035,
        "meta_eccentricity": 0.00058186,
        "meta_inclination": 98.3607,
        "meta_ra_of_asc_node": 286.0694,
        "meta_arg_of_pericenter": 162.6374,
        "meta_mean_anomaly": 197.5041,
        "meta_ephemeris_type": 0,
        "meta_classification_type": "U",
        "meta_norad_cat_id": 40072,
        "meta_element_set_no": 999,
        "meta_rev_at_epoch": 61762,
        "meta_bstar": 0.00038681127,
        "meta_mean_motion_dot": 3.431e-05,
        "meta_mean_motion_ddot": 0,
        "tle_line1": "1 40072U 14037D   25342.58293420  .00003431  00000+0  38681-3 0  9996",
        "tle_line2": "2 40072  98.3607 286.0694 0005818 162.6374 197.5041 14.87304035617628"
      },
      "geometry": {
        "type": "Point",
        "coordinates": [
          -69.69672512614366,
          -24.33623399378519
        ]
      }
    }
  ]
}